GLOBALSTAR M094         
1 39074U 13005C   25029.52554838 -.00000067  00000+0  20460-3 0  9998
2 39074  51.9935 244.3026 0000886  60.2605 299.8349 12.62267960554862
GLOBALSTAR M096         
1 39075U 13005D   25029.45960161 -.00000056  00000+0  26472-3 0  9998
2 39075  52.0082 292.9111 0000645  40.8462 319.2453 12.62267585553775
GLOBALSTAR M078         
1 39076U 13005E   25029.35336885 -.00000104  00000+0 -27400-5 0  9997
2 39076  51.9891  17.9252 0000711 218.3354 141.7462 12.62269469552386
GLOBALSTAR M095         
1 39077U 13005F   25029.38020977 -.00000102  00000+0  73210-5 0  9990
2 39077  51.9820  15.1124 0000294 274.3705  85.7128 12.62265730552243
GLOBALSTAR M087         
1 52888U 22064A   25029.56932607 -.00000113  00000+0 -51655-4 0  9993
2 52888  51.9781 155.9438 0000768 109.5227 250.5723 12.62268145127535
